{"type": "FeatureCollection", "features": [ {"type": "Feature", "properties": {"norad_id": 34833, "name": "IRIDIUM 33 DEB", "group": "iridium-33-debris", "lat": -4.908622508244111, "lon": 53.32641830749415, "alt_km": 729.7401164770272, "timestamp": "2025-12-06T14:35:37.511206+00:00", "meta": {"OBJECT_NAME": "IRIDIUM 33 DEB", "OBJECT_ID": "1997-051MH", "EPOCH": "2025-12-04T11:26:09.511872", "MEAN_MOTION": 14.52297117, "ECCENTRICITY": 0.00216, "INCLINATION": 86.3942, "RA_OF_ASC_NODE": 54.5547, "ARG_OF_PERICENTER": 123.9185, "MEAN_ANOMALY": 254.0843, "EPHEMERIS_TYPE": 0, "CLASSIFICATION_TYPE": "U", "NORAD_CAT_ID": 34833, "ELEMENT_SET_NO": 999, "REV_AT_EPOCH": 87595, "BSTAR": 0.0019345, "MEAN_MOTION_DOT": 7.908e-05, "MEAN_MOTION_DDOT": 0}, "tle": {"line1": "1 34833U 97051MH  25338.47649898  .00007908  00000+0  19345-2 0  9996", "line2": "2 34833  86.3942  54.5547 0021600 123.9185 254.0843 14.52297117875952"}}, "geometry": {"type": "Point", "coordinates": [53.32641830749415, -4.908622508244111]}}, {"type": "Feature", "properties": {"norad_id": 34870, "name": "IRIDIUM 33 DEB", "group": "iridium-33-debris", "lat": 21.20254852059036, "lon": 135.4575366307911, "alt_km": 633.8908582669874, "timestamp": "2025-12-06T14:35:37.511226+00:00", "meta": {"OBJECT_NAME": "IRIDIUM 33 DEB", "OBJECT_ID": "1997-051MQ", "EPOCH": "2025-12-06T06:01:40.638720", "MEAN_MOTION": 14.7623031, "ECCENTRICITY": 0.00152329, "INCLINATION": 86.3104, "RA_OF_ASC_NODE": 317.0553, "ARG_OF_PERICENTER": 206.8225, "MEAN_ANOMALY": 216.4192, "EPHEMERIS_TYPE": 0, "CLASSIFICATION_TYPE": "U", "NORAD_CAT_ID": 34870, "ELEMENT_SET_NO": 999, "REV_AT_EPOCH": 88815, "BSTAR": 0.002728719, "MEAN_MOTION_DOT": 0.00018975, "MEAN_MOTION_DDOT": 0}, "tle": {"line1": "1 34870U 97051MQ  25340.25116480  .00018975  00000+0  27287-2 0  9992", "line2": "2 34870  86.3104 317.0553 0015232 206.8225 216.4192 14.76230310888150"}}, "geometry": {"type": "Point", "coordinates": [135.4575366307911, 21.20254852059036]}}, {"type": "Feature", "properties": {"norad_id": 34896, "name": "IRIDIUM 33 DEB", "group": "iridium-33-debris", "lat": -42.515846587503454, "lon": 152.81106368944788, "alt_km": 663.787937008462, "timestamp": "2025-12-06T14:35:37.511244+00:00", "meta": {"OBJECT_NAME": "IRIDIUM 33 DEB", "OBJECT_ID": "1997-051MY", "EPOCH": "2025-12-05T17:05:39.506784", "MEAN_MOTION": 14.66165825, "ECCENTRICITY": 0.00238087, "INCLINATION": 86.3279, "RA_OF_ASC_NODE": 329.8372, "ARG_OF_PERICENTER": 240.6117, "MEAN_ANOMALY": 296.7708, "EPHEMERIS_TYPE": 0, "CLASSIFICATION_TYPE": "U", "NORAD_CAT_ID": 34896, "ELEMENT_SET_NO": 999, "REV_AT_EPOCH": 87516, "BSTAR": 0.001793551, "MEAN_MOTION_DOT": 9.929e-05, "MEAN_MOTION_DDOT": 0}, "tle": {"line1": "1 34896U 97051MY  25339.71226281  .00009929  00000+0  17936-2 0  9999", "line2": "2 34896  86.3279 329.8372 0023808 240.6117 296.7708 14.66165825875163"}}, "geometry": {"type": "Point", "coordinates": [152.81106368944788, -42.515846587503454]}}, {"type": "Feature", "properties": {"norad_id": 34926, "name": "IRIDIUM 33 DEB", "group": "iridium-33-debris", "lat": -33.504497997255065, "lon": -166.31690396245236, "alt_km": 728.1541702378527, "timestamp": "2025-12-06T14:35:37.511261+00:00", "meta": {"OBJECT_NAME": "IRIDIUM 33 DEB", "OBJECT_ID": "1997-051NF", "EPOCH": "2025-12-06T02:10:24.331296", "MEAN_MOTION": 14.53948419, "ECCENTRICITY": 0.00763667, "INCLINATION": 86.1314, "RA_OF_ASC_NODE": 11.3554, "ARG_OF_PERICENTER": 315.4577, "MEAN_ANOMALY": 71.8192, "EPHEMERIS_TYPE": 0, "CLASSIFICATION_TYPE": "U", "NORAD_CAT_ID": 34926, "ELEMENT_SET_NO": 999, "REV_AT_EPOCH": 86360, "BSTAR": 0.0073242874, "MEAN_MOTION_DOT": 0.00032185, "MEAN_MOTION_DDOT": 0}, "tle": {"line1": "1 34926U 97051NF  25340.09055939  .00032185  00000+0  73243-2 0  9999", "line2": "2 34926  86.1314  11.3554 0076366 315.4577  71.8192 14.53948419863607"}}, "geometry": {"type": "Point", "coordinates": [-166.31690396245236, -33.504497997255065]}}, {"type": "Feature", "properties": {"norad_id": 34985, "name": "IRIDIUM 33 DEB", "group": "iridium-33-debris", "lat": -68.21712410820031, "lon": -111.36412167534836, "alt_km": 745.1147235028584, "timestamp": "2025-12-06T14:35:37.511284+00:00", "meta": {"OBJECT_NAME": "IRIDIUM 33 DEB", "OBJECT_ID": "1997-051NR", "EPOCH": "2025-12-06T05:15:00.430272", "MEAN_MOTION": 14.41964666, "ECCENTRICITY": 0.00201311, "INCLINATION": 86.3699, "RA_OF_ASC_NODE": 59.6613, "ARG_OF_PERICENTER": 242.4844, "MEAN_ANOMALY": 146.2512, "EPHEMERIS_TYPE": 0, "CLASSIFICATION_TYPE": "U", "NORAD_CAT_ID": 34985, "ELEMENT_SET_NO": 999, "REV_AT_EPOCH": 87081, "BSTAR": 0.0012834659, "MEAN_MOTION_DOT": 4.235e-05, "MEAN_MOTION_DDOT": 0}, "tle": {"line1": "1 34985U 97051NR  25340.21875498  .00004235  00000+0  12835-2 0  9993", "line2": "2 34985  86.3699  59.6613 0020131 242.4844 146.2512 14.41964666870819"}}, "geometry": {"type": "Point", "coordinates": [-111.36412167534836, -68.21712410820031]}}, {"type": "Feature", "properties": {"norad_id": 35051, "name": "IRIDIUM 33 DEB", "group": "iridium-33-debris", "lat": 57.68042633781509, "lon": 17.36637891284726, "alt_km": 723.2219438253242, "timestamp": "2025-12-06T14:35:37.511301+00:00", "meta": {"OBJECT_NAME": "IRIDIUM 33 DEB", "OBJECT_ID": "1997-051NX", "EPOCH": "2025-12-05T08:27:53.565120", "MEAN_MOTION": 14.47546386, "ECCENTRICITY": 0.00106363, "INCLINATION": 86.3242, "RA_OF_ASC_NODE": 12.0813, "ARG_OF_PERICENTER": 111.2483, "MEAN_ANOMALY": 248.9857, "EPHEMERIS_TYPE": 0, "CLASSIFICATION_TYPE": "U", "NORAD_CAT_ID": 35051, "ELEMENT_SET_NO": 999, "REV_AT_EPOCH": 86889, "BSTAR": 0.0012192117, "MEAN_MOTION_DOT": 4.506e-05, "MEAN_MOTION_DDOT": 0}, "tle": {"line1": "1 35051U 97051NX  25339.35270330  .00004506  00000+0  12192-2 0  9992", "line2": "2 35051  86.3242  12.0813 0010636 111.2483 248.9857 14.47546386868892"}}, "geometry": {"type": "Point", "coordinates": [17.36637891284726, 57.68042633781509]}}, {"type": "Feature", "properties": {"norad_id": 35052, "name": "IRIDIUM 33 DEB", "group": "iridium-33-debris", "lat": 47.20292566034578, "lon": 27.07826444498893, "alt_km": 753.6739213951732, "timestamp": "2025-12-06T14:35:37.511320+00:00", "meta": {"OBJECT_NAME": "IRIDIUM 33 DEB", "OBJECT_ID": "1997-051NY", "EPOCH": "2025-12-04T20:38:14.764704", "MEAN_MOTION": 14.38478571, "ECCENTRICITY": 0.0013621, "INCLINATION": 86.3316, "RA_OF_ASC_NODE": 23.8542, "ARG_OF_PERICENTER": 106.9628, "MEAN_ANOMALY": 253.3064, "EPHEMERIS_TYPE": 0, "CLASSIFICATION_TYPE": "U", "NORAD_CAT_ID": 35052, "ELEMENT_SET_NO": 999, "REV_AT_EPOCH": 87162, "BSTAR": 0.00036777, "MEAN_MOTION_DOT": 1.143e-05, "MEAN_MOTION_DDOT": 0}, "tle": {"line1": "1 35052U 97051NY  25338.85989311  .00001143  00000+0  36777-3 0  9993", "line2": "2 35052  86.3316  23.8542 0013621 106.9628 253.3064 14.38478571871628"}}, "geometry": {"type": "Point", "coordinates": [27.07826444498893, 47.20292566034578]}}, {"type": "Feature", "properties": {"norad_id": 35080, "name": "IRIDIUM 33 DEB", "group": "iridium-33-debris", "lat": -85.54823092469536, "lon": -66.2369782158493, "alt_km": 604.2364026013229, "timestamp": "2025-12-06T14:35:37.511336+00:00", "meta": {"OBJECT_NAME": "IRIDIUM 33 DEB", "OBJECT_ID": "1997-051PF", "EPOCH": "2025-12-05T22:50:10.565088", "MEAN_MOTION": 14.84725398, "ECCENTRICITY": 0.00625763, "INCLINATION": 86.2064, "RA_OF_ASC_NODE": 55.6178, "ARG_OF_PERICENTER": 202.8962, "MEAN_ANOMALY": 156.947, "EPHEMERIS_TYPE": 0, "CLASSIFICATION_TYPE": "U", "NORAD_CAT_ID": 35080, "ELEMENT_SET_NO": 999, "REV_AT_EPOCH": 69587, "BSTAR": 0.011235471, "MEAN_MOTION_DOT": 0.000998, "MEAN_MOTION_DDOT": 0}, "tle": {"line1": "1 35080U 97051PF  25339.95151117  .00099800  00000+0  11235-1 0  9998", "line2": "2 35080  86.2064  55.6178 0062576 202.8962 156.9470 14.84725398695879"}}, "geometry": {"type": "Point", "coordinates": [-66.2369782158493, -85.54823092469536]}}, {"type": "Feature", "properties": {"norad_id": 35297, "name": "IRIDIUM 33 DEB", "group": "iridium-33-debris", "lat": 11.91641158498619, "lon": -115.38732244190837, "alt_km": 731.0514391300776, "timestamp": "2025-12-06T14:35:37.511352+00:00", "meta": {"OBJECT_NAME": "IRIDIUM 33 DEB", "OBJECT_ID": "1997-051PM", "EPOCH": "2025-12-06T00:31:29.302752", "MEAN_MOTION": 14.45108459, "ECCENTRICITY": 0.00170329, "INCLINATION": 86.3867, "RA_OF_ASC_NODE": 65.6268, "ARG_OF_PERICENTER": 161.2449, "MEAN_ANOMALY": 198.9384, "EPHEMERIS_TYPE": 0, "CLASSIFICATION_TYPE": "U", "NORAD_CAT_ID": 35297, "ELEMENT_SET_NO": 999, "REV_AT_EPOCH": 70329, "BSTAR": 0.0012426888, "MEAN_MOTION_DOT": 4.371e-05, "MEAN_MOTION_DDOT": 0}, "tle": {"line1": "1 35297U 97051PM  25340.02186693  .00004371  00000+0  12427-2 0  9999", "line2": "2 35297  86.3867  65.6268 0017032 161.2449 198.9384 14.45108459703293"}}, "geometry": {"type": "Point", "coordinates": [-115.38732244190837, 11.91641158498619]}}, {"type": "Feature", "properties": {"norad_id": 35299, "name": "IRIDIUM 33 DEB", "group": "iridium-33-debris", "lat": -16.210325928956298, "lon": -143.06281471118493, "alt_km": 749.2254948108766, "timestamp": "2025-12-06T14:35:37.511368+00:00", "meta": {"OBJECT_NAME": "IRIDIUM 33 DEB", "OBJECT_ID": "1997-051PP", "EPOCH": "2025-12-04T22:15:32.154336", "MEAN_MOTION": 14.40800476, "ECCENTRICITY": 0.0058727, "INCLINATION": 86.2893, "RA_OF_ASC_NODE": 36.5873, "ARG_OF_PERICENTER": 127.2291, "MEAN_ANOMALY": 356.5642, "EPHEMERIS_TYPE": 0, "CLASSIFICATION_TYPE": "U", "NORAD_CAT_ID": 35299, "ELEMENT_SET_NO": 999, "REV_AT_EPOCH": 86218, "BSTAR": 0.0017577, "MEAN_MOTION_DOT": 5.762e-05, "MEAN_MOTION_DDOT": 0}, "tle": {"line1": "1 35299U 97051PP  25338.92745549  .00005762  00000+0  17577-2 0  9994", "line2": "2 35299  86.2893  36.5873 0058727 127.2291 356.5642 14.40800476862181"}}, "geometry": {"type": "Point", "coordinates": [-143.06281471118493, -16.210325928956298]}}]}